{"type": "FeatureCollection", "features": [ {"type": "Feature", "properties": {"norad_id": 29878, "name": "FENGYUN 1C DEB", "group": "fengyun-1c-debris", "lat": -64.95245687807487, "lon": -176.6554445179042, "alt_km": 553.6186937777693, "timestamp": "2025-12-22T14:45:57.674446+00:00", "meta": {"OBJECT_NAME": "FENGYUN 1C DEB", "OBJECT_ID": "1999-025FY", "EPOCH": "2025-12-21T00:55:49.334016", "MEAN_MOTION": 15.11544984, "ECCENTRICITY": 0.00244714, "INCLINATION": 96.9464, "RA_OF_ASC_NODE": 166.7881, "ARG_OF_PERICENTER": 141.4808, "MEAN_ANOMALY": 218.8177, "EPHEMERIS_TYPE": 0, "CLASSIFICATION_TYPE": "U", "NORAD_CAT_ID": 29878, "ELEMENT_SET_NO": 999, "REV_AT_EPOCH": 98773, "BSTAR": 0.004785914, "MEAN_MOTION_DOT": 0.00082504, "MEAN_MOTION_DDOT": 0}, "tle": {"line1": "1 29878U 99025FY  25355.03876544  .00082504  00000+0  47859-2 0  9999", "line2": "2 29878  96.9464 166.7881 0024471 141.4808 218.8177 15.11544984987735"}}, "geometry": {"type": "Point", "coordinates": [-176.6554445179042, -64.95245687807487]}}, {"type": "Feature", "properties": {"norad_id": 29880, "name": "FENGYUN 1C DEB", "group": "fengyun-1c-debris", "lat": -27.008039944177742, "lon": -81.7343679704742, "alt_km": 949.3034629050389, "timestamp": "2025-12-22T14:45:57.674456+00:00", "meta": {"OBJECT_NAME": "FENGYUN 1C DEB", "OBJECT_ID": "1999-025GA", "EPOCH": "2025-12-20T18:24:09.218304", "MEAN_MOTION": 13.9393618, "ECCENTRICITY": 0.02321942, "INCLINATION": 98.1954, "RA_OF_ASC_NODE": 272.4116, "ARG_OF_PERICENTER": 79.0661, "MEAN_ANOMALY": 345.5403, "EPHEMERIS_TYPE": 0, "CLASSIFICATION_TYPE": "U", "NORAD_CAT_ID": 29880, "ELEMENT_SET_NO": 999, "REV_AT_EPOCH": 95674, "BSTAR": 0.00078847551, "MEAN_MOTION_DOT": 1.267e-05, "MEAN_MOTION_DDOT": 0}, "tle": {"line1": "1 29880U 99025GA  25354.76677336  .00001267  00000+0  78848-3 0  9999", "line2": "2 29880  98.1954 272.4116 0232194  79.0661 345.5403 13.93936180956746"}}, "geometry": {"type": "Point", "coordinates": [-81.7343679704742, -27.008039944177742]}}, {"type": "Feature", "properties": {"norad_id": 29881, "name": "FENGYUN 1C DEB", "group": "fengyun-1c-debris", "lat": -69.31513513277226, "lon": -8.279351587395727, "alt_km": 1138.3651041137846, "timestamp": "2025-12-22T14:45:57.674467+00:00", "meta": {"OBJECT_NAME": "FENGYUN 1C DEB", "OBJECT_ID": "1999-025GB", "EPOCH": "2025-12-20T21:01:30.942912", "MEAN_MOTION": 13.59649156, "ECCENTRICITY": 0.0293091, "INCLINATION": 98.7227, "RA_OF_ASC_NODE": 326.1775, "ARG_OF_PERICENTER": 50.5786, "MEAN_ANOMALY": 12.9005, "EPHEMERIS_TYPE": 0, "CLASSIFICATION_TYPE": "U", "NORAD_CAT_ID": 29881, "ELEMENT_SET_NO": 999, "REV_AT_EPOCH": 93345, "BSTAR": 0.0019196, "MEAN_MOTION_DOT": 1.854e-05, "MEAN_MOTION_DDOT": 0}, "tle": {"line1": "1 29881U 99025GB  25354.87605258  .00001854  00000+0  19196-2 0  9998", "line2": "2 29881  98.7227 326.1775 0293091  50.5786  12.9005 13.59649156933451"}}, "geometry": {"type": "Point", "coordinates": [-8.279351587395727, -69.31513513277226]}}, {"type": "Feature", "properties": {"norad_id": 29884, "name": "FENGYUN 1C DEB", "group": "fengyun-1c-debris", "lat": -58.70984697329037, "lon": -164.93327205492616, "alt_km": 785.246216283801, "timestamp": "2025-12-22T14:45:57.674478+00:00", "meta": {"OBJECT_NAME": "FENGYUN 1C DEB", "OBJECT_ID": "1999-025GE", "EPOCH": "2025-12-22T00:36:15.546816", "MEAN_MOTION": 14.4033179, "ECCENTRICITY": 0.004438, "INCLINATION": 99.6023, "RA_OF_ASC_NODE": 30.5785, "ARG_OF_PERICENTER": 110.4983, "MEAN_ANOMALY": 311.2062, "EPHEMERIS_TYPE": 0, "CLASSIFICATION_TYPE": "U", "NORAD_CAT_ID": 29884, "ELEMENT_SET_NO": 999, "REV_AT_EPOCH": 98683, "BSTAR": 0.00054836267, "MEAN_MOTION_DOT": 1.706e-05, "MEAN_MOTION_DDOT": 0}, "tle": {"line1": "1 29884U 99025GE  25356.02517994  .00001706  00000+0  54836-3 0  9996", "line2": "2 29884  99.6023  30.5785 0044380 110.4983 311.2062 14.40331790986836"}}, "geometry": {"type": "Point", "coordinates": [-164.93327205492616, -58.70984697329037]}}, {"type": "Feature", "properties": {"norad_id": 29885, "name": "FENGYUN 1C DEB", "group": "fengyun-1c-debris", "lat": -48.892413515630636, "lon": 101.30724556743118, "alt_km": 858.3182798175712, "timestamp": "2025-12-22T14:45:57.674489+00:00", "meta": {"OBJECT_NAME": "FENGYUN 1C DEB", "OBJECT_ID": "1999-025GF", "EPOCH": "2025-12-21T19:16:00.400224", "MEAN_MOTION": 14.13585598, "ECCENTRICITY": 0.01188647, "INCLINATION": 98.3566, "RA_OF_ASC_NODE": 290.2454, "ARG_OF_PERICENTER": 138.2682, "MEAN_ANOMALY": 277.6547, "EPHEMERIS_TYPE": 0, "CLASSIFICATION_TYPE": "U", "NORAD_CAT_ID": 29885, "ELEMENT_SET_NO": 999, "REV_AT_EPOCH": 97585, "BSTAR": 0.00010504561, "MEAN_MOTION_DOT": 1.73e-06, "MEAN_MOTION_DDOT": 0}, "tle": {"line1": "1 29885U 99025GF  25355.80278241  .00000173  00000+0  10505-3 0  9993", "line2": "2 29885  98.3566 290.2454 0118864 138.2682 277.6547 14.13585598975856"}}, "geometry": {"type": "Point", "coordinates": [101.30724556743118, -48.892413515630636]}}, {"type": "Feature", "properties": {"norad_id": 29887, "name": "FENGYUN 1C DEB", "group": "fengyun-1c-debris", "lat": -1.703820369529403, "lon": 78.57853912595778, "alt_km": 600.7310100048571, "timestamp": "2025-12-22T14:45:57.674499+00:00", "meta": {"OBJECT_NAME": "FENGYUN 1C DEB", "OBJECT_ID": "1999-025GH", "EPOCH": "2025-12-21T00:49:53.253696", "MEAN_MOTION": 14.33741561, "ECCENTRICITY": 0.02865083, "INCLINATION": 98.7176, "RA_OF_ASC_NODE": 76.7223, "ARG_OF_PERICENTER": 334.6271, "MEAN_ANOMALY": 148.6309, "EPHEMERIS_TYPE": 0, "CLASSIFICATION_TYPE": "U", "NORAD_CAT_ID": 29887, "ELEMENT_SET_NO": 999, "REV_AT_EPOCH": 98093, "BSTAR": 0.00035917377, "MEAN_MOTION_DOT": 1.522e-05, "MEAN_MOTION_DDOT": 0}, "tle": {"line1": "1 29887U 99025GH  25355.03464414  .00001522  00000+0  35917-3 0  9992", "line2": "2 29887  98.7176  76.7223 0286508 334.6271 148.6309 14.33741561980931"}}, "geometry": {"type": "Point", "coordinates": [78.57853912595778, -1.703820369529403]}}, {"type": "Feature", "properties": {"norad_id": 29888, "name": "FENGYUN 1C DEB", "group": "fengyun-1c-debris", "lat": -57.48315722441671, "lon": -155.5694575298692, "alt_km": 718.2291209490159, "timestamp": "2025-12-22T14:45:57.674510+00:00", "meta": {"OBJECT_NAME": "FENGYUN 1C DEB", "OBJECT_ID": "1999-025GJ", "EPOCH": "2025-12-22T01:29:58.781760", "MEAN_MOTION": 14.19876188, "ECCENTRICITY": 0.02746817, "INCLINATION": 99.1913, "RA_OF_ASC_NODE": 189.1425, "ARG_OF_PERICENTER": 358.8823, "MEAN_ANOMALY": 1.1706, "EPHEMERIS_TYPE": 0, "CLASSIFICATION_TYPE": "U", "NORAD_CAT_ID": 29888, "ELEMENT_SET_NO": 999, "REV_AT_EPOCH": 97636, "BSTAR": 0.00033727306, "MEAN_MOTION_DOT": 9.89e-06, "MEAN_MOTION_DDOT": 0}, "tle": {"line1": "1 29888U 99025GJ  25356.06248590  .00000989  00000+0  33727-3 0  9995", "line2": "2 29888  99.1913 189.1425 0274681 358.8823   1.1706 14.19876188976363"}}, "geometry": {"type": "Point", "coordinates": [-155.5694575298692, -57.48315722441671]}}, {"type": "Feature", "properties": {"norad_id": 29889, "name": "FENGYUN 1C DEB", "group": "fengyun-1c-debris", "lat": 17.35257467672147, "lon": -62.411859525849614, "alt_km": 944.3428130642978, "timestamp": "2025-12-22T14:45:57.674521+00:00", "meta": {"OBJECT_NAME": "FENGYUN 1C DEB", "OBJECT_ID": "1999-025GK", "EPOCH": "2025-12-22T07:27:42.475392", "MEAN_MOTION": 14.13522233, "ECCENTRICITY": 0.01540727, "INCLINATION": 99.4774, "RA_OF_ASC_NODE": 114.2738, "ARG_OF_PERICENTER": 12.5041, "MEAN_ANOMALY": 41.0584, "EPHEMERIS_TYPE": 0, "CLASSIFICATION_TYPE": "U", "NORAD_CAT_ID": 29889, "ELEMENT_SET_NO": 999, "REV_AT_EPOCH": 97454, "BSTAR": 0.00025203907, "MEAN_MOTION_DOT": 4.82e-06, "MEAN_MOTION_DDOT": 0}, "tle": {"line1": "1 29889U 99025GK  25356.31090828  .00000482  00000+0  25204-3 0  9992", "line2": "2 29889  99.4774 114.2738 0154072  12.5041  41.0584 14.13522233974543"}}, "geometry": {"type": "Point", "coordinates": [-62.411859525849614, 17.35257467672147]}}, {"type": "Feature", "properties": {"norad_id": 29890, "name": "FENGYUN 1C DEB", "group": "fengyun-1c-debris", "lat": 3.2334245945274356, "lon": 118.33501829013977, "alt_km": 809.7878748684643, "timestamp": "2025-12-22T14:45:57.674532+00:00", "meta": {"OBJECT_NAME": "FENGYUN 1C DEB", "OBJECT_ID": "1999-025GL", "EPOCH": "2025-12-21T06:41:22.532928", "MEAN_MOTION": 14.23066362, "ECCENTRICITY": 0.00144811, "INCLINATION": 99.4686, "RA_OF_ASC_NODE": 117.4392, "ARG_OF_PERICENTER": 49.8878, "MEAN_ANOMALY": 310.3564, "EPHEMERIS_TYPE": 0, "CLASSIFICATION_TYPE": "U", "NORAD_CAT_ID": 29890, "ELEMENT_SET_NO": 999, "REV_AT_EPOCH": 97572, "BSTAR": 0.00065565297, "MEAN_MOTION_DOT": 1.43e-05, "MEAN_MOTION_DDOT": 0}, "tle": {"line1": "1 29890U 99025GL  25355.27873302  .00001430  00000+0  65565-3 0  9992", "line2": "2 29890  99.4686 117.4392 0014481  49.8878 310.3564 14.23066362975726"}}, "geometry": {"type": "Point", "coordinates": [118.33501829013977, 3.2334245945274356]}}, {"type": "Feature", "properties": {"norad_id": 29891, "name": "FENGYUN 1C DEB", "group": "fengyun-1c-debris", "lat": -8.972813376260648, "lon": 176.89764411666556, "alt_km": 865.458043746049, "timestamp": "2025-12-22T14:45:57.674543+00:00", "meta": {"OBJECT_NAME": "FENGYUN 1C DEB", "OBJECT_ID": "1999-025GM", "EPOCH": "2025-12-21T12:44:54.869568", "MEAN_MOTION": 14.0000969, "ECCENTRICITY": 0.00610665, "INCLINATION": 98.727, "RA_OF_ASC_NODE": 357.2532, "ARG_OF_PERICENTER": 235.6062, "MEAN_ANOMALY": 253.1519, "EPHEMERIS_TYPE": 0, "CLASSIFICATION_TYPE": "U", "NORAD_CAT_ID": 29891, "ELEMENT_SET_NO": 999, "REV_AT_EPOCH": 96611, "BSTAR": 0.00048315718, "MEAN_MOTION_DOT": 6.8e-06, "MEAN_MOTION_DDOT": 0}, "tle": {"line1": "1 29891U 99025GM  25355.53119062  .00000680  00000+0  48316-3 0  9999", "line2": "2 29891  98.7270 357.2532 0061066 235.6062 253.1519 14.00009690966112"}}, "geometry": {"type": "Point", "coordinates": [176.89764411666556, -8.972813376260648]}}]}